CTC1_L_00525001-01
1 71271U 24846TI  26037.47807870  .00000000  00000+0  00000-0 0  9990
2 71271  98.5000   0.0000 0000000   0.0000   0.0000 14.34117603    13
CTC1_L_00525002-01
1 71272U 24818L   26037.47807870  .00000000  00000+0  00000-0 0  9990
2 71272  98.5000  12.0000 0000000   0.0000  48.0000 14.34117603    19
CTC1_L_00525003-01
1 71273U 24301F   26037.47807870  .00000000  00000+0  00000-0 0  9998
2 71273  98.5000  24.0000 0000000   0.0000  96.0000 14.34117603    16
CTC1_L_00525004-01
1 71274U 25133EW  26037.47807870  .00000000  00000+0  00000-0 0  9993
2 71274  98.5000  36.0000 0000000   0.0000 144.0000 14.34117603    14
CTC1_L_00525005-01
1 71275U 26131TC  26037.47807870  .00000000  00000+0  00000-0 0  9993
2 71275  98.5000  48.0000 0000000   0.0000 192.0000 14.34117603    11
CTC1_L_00525006-01
1 71276U 22787YV  26037.47807870  .00000000  00000+0  00000-0 0  9997
2 71276  98.5000  60.0000 0000000   0.0000 240.0000 14.34117603    10
CTC1_L_00525007-01
1 71277U 22857LJ  26037.47807870  .00000000  00000+0  00000-0 0  9996
2 71277  98.5000  72.0000 0000000   0.0000 288.0000 14.34117603    16
CTC1_L_00525008-01
1 71278U 25748AO  26037.47807870  .00000000  00000+0  00000-0 0  9999
2 71278  98.5000  84.0000 0000000   0.0000 336.0000 14.34117603    14
CTC1_L_00525009-01
1 71279U 25480UX  26037.47807870  .00000000  00000+0  00000-0 0  9993
2 71279  98.5000  96.0000 0000000   0.0000  24.0000 14.34117603    12
CTC1_L_00525010-01
1 71280U 23674MW  26037.47807870  .00000000  00000+0  00000-0 0  9998
2 71280  98.5000 108.0000 0000000   0.0000  72.0000 14.34117603    11
CTC1_L_00525011-01
1 71281U 22740DF  26037.47807870  .00000000  00000+0  00000-0 0  9992
2 71281  98.5000 120.0000 0000000   0.0000 120.0000 14.34117603    10
CTC1_L_00525012-01
1 71282U 24897BK  26037.47807870  .00000000  00000+0  00000-0 0  9998
2 71282  98.5000 132.0000 0000000   0.0000 168.0000 14.34117603    16
CTC1_L_00525013-01
1 71283U 25937FM  26037.47807870  .00000000  00000+0  00000-0 0  9995
2 71283  98.5000 144.0000 0000000   0.0000 216.0000 14.34117603    14
CTC1_L_00525014-01
1 71284U 24778AN  26037.47807870  .00000000  00000+0  00000-0 0  9998
2 71284  98.5000 156.0000 0000000   0.0000 264.0000 14.34117603    11
CTC1_L_00525015-01
1 71285U 25287LB  26037.47807870  .00000000  00000+0  00000-0 0  9995
2 71285  98.5000 168.0000 0000000   0.0000 312.0000 14.34117603    19
CTC1_L_00525016-01
1 71286U 25755WU  26037.47807870  .00000000  00000+0  00000-0 0  9996
2 71286  98.5000 180.0000 0000000   0.0000   0.0000 14.34117603    18
CTC1_L_00525017-01
1 71287U 23017VJ  26037.47807870  .00000000  00000+0  00000-0 0  9996
2 71287  98.5000 192.0000 0000000   0.0000  48.0000 14.34117603    14
CTC1_L_00525018-01
1 71288U 25713ZS  26037.47807870  .00000000  00000+0  00000-0 0  9992
2 71288  98.5000 204.0000 0000000   0.0000  96.0000 14.34117603    12
CTC1_L_00525019-01
1 71289U 24217YT  26037.47807870  .00000000  00000+0  00000-0 0  9991
2 71289  98.5000 216.0000 0000000   0.0000 144.0000 14.34117603    10
CTC1_L_00525020-01
1 71290U 22837MW  26037.47807870  .00000000  00000+0  00000-0 0  9999
2 71290  98.5000 228.0000 0000000   0.0000 192.0000 14.34117603    18
CTC1_L_00525021-01
1 71291U 22732UG  26037.47807870  .00000000  00000+0  00000-0 0  9994
2 71291  98.5000 240.0000 0000000   0.0000 240.0000 14.34117603    17
CTC1_L_00525022-01
1 71292U 26829JC  26037.47807870  .00000000  00000+0  00000-0 0  9996
2 71292  98.5000 252.0000 0000000   0.0000 288.0000 14.34117603    13
CTC1_L_00525023-01
1 71293U 22462UE  26037.47807870  .00000000  00000+0  00000-0 0  9996
2 71293  98.5000 264.0000 0000000   0.0000 336.0000 14.34117603    11
CTC1_L_00525024-01
1 71294U 23222CV  26037.47807870  .00000000  00000+0  00000-0 0  9992
2 71294  98.5000 276.0000 0000000   0.0000  24.0000 14.34117603    19
CTC1_L_00525025-01
1 71295U 25469JS  26037.47807870  .00000000  00000+0  00000-0 0  9998
2 71295  98.5000 288.0000 0000000   0.0000  72.0000 14.34117603    16
CTC1_L_00525026-01
1 71296U 26435TW  26037.47807870  .00000000  00000+0  00000-0 0  9993
2 71296  98.5000 300.0000 0000000   0.0000 120.0000 14.34117603    16
CTC1_L_00525027-01
1 71297U 24902OJ  26037.47807870  .00000000  00000+0  00000-0 0  9991
2 71297  98.5000 312.0000 0000000   0.0000 168.0000 14.34117603    12
CTC1_L_00525028-01
1 71298U 22538UE  26037.47807870  .00000000  00000+0  00000-0 0  9995
2 71298  98.5000 324.0000 0000000   0.0000 216.0000 14.34117603    10
CTC1_L_00525029-01
1 71299U 26897MV  26037.47807870  .00000000  00000+0  00000-0 0  9998
2 71299  98.5000 336.0000 0000000   0.0000 264.0000 14.34117603    17
CTC1_L_00525030-01
1 71300U 22849VI  26037.47807870  .00000000  00000+0  00000-0 0  9994
2 71300  98.5000 348.0000 0000000   0.0000 312.0000 14.34117603    17
